[{"OBJECT_NAME":"STARLINK-35031","OBJECT_ID":"2025-192A","EPOCH":"2026-03-09T17:39:49.785696","MEAN_MOTION":15.30195571,"ECCENTRICITY":8.13e-5,"INCLINATION":53.16,"RA_OF_ASC_NODE":242.6371,"ARG_OF_PERICENTER":46.8896,"MEAN_ANOMALY":313.2172,"EPHEMERIS_TYPE":0,"CLASSIFICATION_TYPE":"U","NORAD_CAT_ID":65404,"ELEMENT_SET_NO":999,"REV_AT_EPOCH":2924,"BSTAR":0.0010727259,"MEAN_MOTION_DOT":0.00031542,"MEAN_MOTION_DDOT":0},{"OBJECT_NAME":"CZ-4B R\/B","OBJECT_ID":"2010-051C","EPOCH":"2026-03-09T16:48:37.977120","MEAN_MOTION":15.17426017,"ECCENTRICITY":0.00758037,"INCLINATION":97.7974,"RA_OF_ASC_NODE":110.8647,"ARG_OF_PERICENTER":95.044,"MEAN_ANOMALY":265.9451,"EPHEMERIS_TYPE":0,"CLASSIFICATION_TYPE":"U","NORAD_CAT_ID":37181,"ELEMENT_SET_NO":999,"REV_AT_EPOCH":84355,"BSTAR":0.00029718512,"MEAN_MOTION_DOT":6.328e-5,"MEAN_MOTION_DDOT":0}]
